CCSDS_OMM_VERS = 2.0
CREATION_DATE  = 
ORIGINATOR     = 

OBJECT_NAME    = SL-16 R/B
OBJECT_ID      = 1998-043G
CENTER_NAME    = EARTH
REF_FRAME      = TEME
TIME_SYSTEM    = UTC
MEAN_ELEMENT_THEORY = SGP/SGP4

EPOCH          = 2026-01-26T06:46:55.742304
MEAN_MOTION    = 14.26038674
ECCENTRICITY   = .00105797
INCLINATION    = 98.8187
RA_OF_ASC_NODE = 339.3643
ARG_OF_PERICENTER = 133.0919
MEAN_ANOMALY   = 227.1148

EPHEMERIS_TYPE = 0
CLASSIFICATION_TYPE = U
NORAD_CAT_ID   = 25400
ELEMENT_SET_NO = 999
REV_AT_EPOCH   = 43294
BSTAR          = .84228445E-4
MEAN_MOTION_DOT = .156E-5
MEAN_MOTION_DDOT = 0

CCSDS_OMM_VERS = 2.0
CREATION_DATE  = 
ORIGINATOR     = 

OBJECT_NAME    = SL-16 R/B
OBJECT_ID      = 1998-045B
CENTER_NAME    = EARTH
REF_FRAME      = TEME
TIME_SYSTEM    = UTC
MEAN_ELEMENT_THEORY = SGP/SGP4

EPOCH          = 2026-01-26T02:56:35.708928
MEAN_MOTION    = 14.16186953
ECCENTRICITY   = .00051013
INCLINATION    = 71.0107
RA_OF_ASC_NODE = 271.0925
ARG_OF_PERICENTER = 90.6925
MEAN_ANOMALY   = 269.4783

EPHEMERIS_TYPE = 0
CLASSIFICATION_TYPE = U
NORAD_CAT_ID   = 25407
ELEMENT_SET_NO = 999
REV_AT_EPOCH   = 42107
BSTAR          = .73849929E-4
MEAN_MOTION_DOT = .99E-6
MEAN_MOTION_DDOT = 0

CCSDS_OMM_VERS = 2.0
CREATION_DATE  = 
ORIGINATOR     = 

OBJECT_NAME    = ISS (ZARYA)
OBJECT_ID      = 1998-067A
CENTER_NAME    = EARTH
REF_FRAME      = TEME
TIME_SYSTEM    = UTC
MEAN_ELEMENT_THEORY = SGP/SGP4

EPOCH          = 2026-01-26T04:12:04.882464
MEAN_MOTION    = 15.48192940
ECCENTRICITY   = .00110604
INCLINATION    = 51.6321
RA_OF_ASC_NODE = 282.5143
ARG_OF_PERICENTER = 31.3623
MEAN_ANOMALY   = 328.8023

EPHEMERIS_TYPE = 0
CLASSIFICATION_TYPE = U
NORAD_CAT_ID   = 25544
ELEMENT_SET_NO = 999
REV_AT_EPOCH   = 54974
BSTAR          = .24609565E-3
MEAN_MOTION_DOT = .12778E-3
MEAN_MOTION_DDOT = 0

CCSDS_OMM_VERS = 2.0
CREATION_DATE  = 
ORIGINATOR     = 

OBJECT_NAME    = CZ-4B R/B
OBJECT_ID      = 1999-025C
CENTER_NAME    = EARTH
REF_FRAME      = TEME
TIME_SYSTEM    = UTC
MEAN_ELEMENT_THEORY = SGP/SGP4

EPOCH          = 2026-01-26T02:59:02.722848
MEAN_MOTION    = 14.18256207
ECCENTRICITY   = .00381693
INCLINATION    = 98.6707
RA_OF_ASC_NODE = 71.3982
ARG_OF_PERICENTER = 107.0187
MEAN_ANOMALY   = 312.6560

EPHEMERIS_TYPE = 0
CLASSIFICATION_TYPE = U
NORAD_CAT_ID   = 25732
ELEMENT_SET_NO = 999
REV_AT_EPOCH   = 38213
BSTAR          = .77091058E-4
MEAN_MOTION_DOT = .117E-5
MEAN_MOTION_DDOT = 0

CCSDS_OMM_VERS = 2.0
CREATION_DATE  = 
ORIGINATOR     = 

OBJECT_NAME    = OKEAN-O
OBJECT_ID      = 1999-039A
CENTER_NAME    = EARTH
REF_FRAME      = TEME
TIME_SYSTEM    = UTC
MEAN_ELEMENT_THEORY = SGP/SGP4

EPOCH          = 2026-01-26T03:13:57.476064
MEAN_MOTION    = 14.80259104
ECCENTRICITY   = .00018957
INCLINATION    = 97.9532
RA_OF_ASC_NODE = 86.4391
ARG_OF_PERICENTER = 98.2018
MEAN_ANOMALY   = 261.9409

EPHEMERIS_TYPE = 0
CLASSIFICATION_TYPE = U
NORAD_CAT_ID   = 25860
ELEMENT_SET_NO = 999
REV_AT_EPOCH   = 42809
BSTAR          = .18747828E-3
MEAN_MOTION_DOT = .1375E-4
MEAN_MOTION_DDOT = 0

CCSDS_OMM_VERS = 2.0
CREATION_DATE  = 
ORIGINATOR     = 

OBJECT_NAME    = SL-16 R/B
OBJECT_ID      = 1999-039B
CENTER_NAME    = EARTH
REF_FRAME      = TEME
TIME_SYSTEM    = UTC
MEAN_ELEMENT_THEORY = SGP/SGP4

EPOCH          = 2026-01-26T03:42:58.825728
MEAN_MOTION    = 14.81666161
ECCENTRICITY   = .00156456
INCLINATION    = 98.0057
RA_OF_ASC_NODE = 85.2951
ARG_OF_PERICENTER = 39.7895
MEAN_ANOMALY   = 320.4461

EPHEMERIS_TYPE = 0
CLASSIFICATION_TYPE = U
NORAD_CAT_ID   = 25861
ELEMENT_SET_NO = 999
REV_AT_EPOCH   = 43056
BSTAR          = .14806526E-3
MEAN_MOTION_DOT = .1113E-4
MEAN_MOTION_DDOT = 0

CCSDS_OMM_VERS = 2.0
CREATION_DATE  = 
ORIGINATOR     = 

OBJECT_NAME    = DELTA 2 R/B
OBJECT_ID      = 1999-041E
CENTER_NAME    = EARTH
REF_FRAME      = TEME
TIME_SYSTEM    = UTC
MEAN_ELEMENT_THEORY = SGP/SGP4

EPOCH          = 2026-01-25T16:22:22.173312
MEAN_MOTION    = 14.11631341
ECCENTRICITY   = .05028855
INCLINATION    = 51.7626
RA_OF_ASC_NODE = 113.0158
ARG_OF_PERICENTER = 221.3519
MEAN_ANOMALY   = 134.8303

EPHEMERIS_TYPE = 0
CLASSIFICATION_TYPE = U
NORAD_CAT_ID   = 25876
ELEMENT_SET_NO = 999
REV_AT_EPOCH   = 35695
BSTAR          = .6890605E-3
MEAN_MOTION_DOT = .4054E-4
MEAN_MOTION_DDOT = 0

CCSDS_OMM_VERS = 2.0
CREATION_DATE  = 
ORIGINATOR     = 

OBJECT_NAME    = HELIOS 1B
OBJECT_ID      = 1999-064A
CENTER_NAME    = EARTH
REF_FRAME      = TEME
TIME_SYSTEM    = UTC
MEAN_ELEMENT_THEORY = SGP/SGP4

EPOCH          = 2026-01-26T06:30:03.206880
MEAN_MOTION    = 14.87507308
ECCENTRICITY   = .00013578
INCLINATION    = 98.1733
RA_OF_ASC_NODE = 287.2598
ARG_OF_PERICENTER = 131.0765
MEAN_ANOMALY   = 229.0568

EPHEMERIS_TYPE = 0
CLASSIFICATION_TYPE = U
NORAD_CAT_ID   = 25977
ELEMENT_SET_NO = 999
REV_AT_EPOCH   = 67895
BSTAR          = .38231514E-3
MEAN_MOTION_DOT = .3409E-4
MEAN_MOTION_DDOT = 0

CCSDS_OMM_VERS = 2.0
CREATION_DATE  = 
ORIGINATOR     = 

OBJECT_NAME    = TERRA
OBJECT_ID      = 1999-068A
CENTER_NAME    = EARTH
REF_FRAME      = TEME
TIME_SYSTEM    = UTC
MEAN_ELEMENT_THEORY = SGP/SGP4

EPOCH          = 2026-01-26T07:44:37.080960
MEAN_MOTION    = 14.60964182
ECCENTRICITY   = .00015606
INCLINATION    = 97.9682
RA_OF_ASC_NODE = 81.3569
ARG_OF_PERICENTER = 349.5418
MEAN_ANOMALY   = 78.1898

EPHEMERIS_TYPE = 0
CLASSIFICATION_TYPE = U
NORAD_CAT_ID   = 25994
ELEMENT_SET_NO = 999
REV_AT_EPOCH   = 38889
BSTAR          = .16946916E-3
MEAN_MOTION_DOT = .786E-5
MEAN_MOTION_DDOT = 0

CCSDS_OMM_VERS = 2.0
CREATION_DATE  = 
ORIGINATOR     = 

OBJECT_NAME    = SL-16 R/B
OBJECT_ID      = 2000-006B
CENTER_NAME    = EARTH
REF_FRAME      = TEME
TIME_SYSTEM    = UTC
MEAN_ELEMENT_THEORY = SGP/SGP4

EPOCH          = 2026-01-25T20:15:52.650432
MEAN_MOTION    = 14.15814541
ECCENTRICITY   = .00186246
INCLINATION    = 71.0008
RA_OF_ASC_NODE = 187.9227
ARG_OF_PERICENTER = 249.2027
MEAN_ANOMALY   = 110.7101

EPHEMERIS_TYPE = 0
CLASSIFICATION_TYPE = U
NORAD_CAT_ID   = 26070
ELEMENT_SET_NO = 999
REV_AT_EPOCH   = 34249
BSTAR          = .17327793E-3
MEAN_MOTION_DOT = .293E-5
MEAN_MOTION_DDOT = 0

CCSDS_OMM_VERS = 2.0
CREATION_DATE  = 
ORIGINATOR     = 

OBJECT_NAME    = TITAN 4B R/B
OBJECT_ID      = 2000-047B
CENTER_NAME    = EARTH
REF_FRAME      = TEME
TIME_SYSTEM    = UTC
MEAN_ELEMENT_THEORY = SGP/SGP4

EPOCH          = 2026-01-26T06:51:59.453856
MEAN_MOTION    = 15.09183825
ECCENTRICITY   = .0036825
INCLINATION    = 67.9890
RA_OF_ASC_NODE = 159.7122
ARG_OF_PERICENTER = 88.4205
MEAN_ANOMALY   = 272.1161

EPHEMERIS_TYPE = 0
CLASSIFICATION_TYPE = U
NORAD_CAT_ID   = 26474
ELEMENT_SET_NO = 999
REV_AT_EPOCH   = 38651
BSTAR          = .39496151E-3
MEAN_MOTION_DOT = .626E-4
MEAN_MOTION_DDOT = 0

CCSDS_OMM_VERS = 2.0
CREATION_DATE  = 
ORIGINATOR     = 

OBJECT_NAME    = ENVISAT
OBJECT_ID      = 2002-009A
CENTER_NAME    = EARTH
REF_FRAME      = TEME
TIME_SYSTEM    = UTC
MEAN_ELEMENT_THEORY = SGP/SGP4

EPOCH          = 2026-01-25T20:10:27.990336
MEAN_MOTION    = 14.39019282
ECCENTRICITY   = .00012258
INCLINATION    = 98.3659
RA_OF_ASC_NODE = 340.4777
ARG_OF_PERICENTER = 91.7689
MEAN_ANOMALY   = 280.2753

EPHEMERIS_TYPE = 0
CLASSIFICATION_TYPE = U
NORAD_CAT_ID   = 27386
ELEMENT_SET_NO = 999
REV_AT_EPOCH   = 25301
BSTAR          = .10071614E-3
MEAN_MOTION_DOT = .268E-5
MEAN_MOTION_DDOT = 0

