SL-16 R/B               
1 25400U 98043G   26026.28258961  .00000156  00000+0  84228-4 0  9991
2 25400  98.8187 339.3643 0010579 133.0919 227.1148 14.26038674432941
SL-16 R/B               
1 25407U 98045B   26026.12263552  .00000099  00000+0  73850-4 0  9990
2 25407  71.0107 271.0925 0005101  90.6925 269.4783 14.16186953421077
ISS (ZARYA)             
1 25544U 98067A   26026.17505651  .00012778  00000+0  24610-3 0  9996
2 25544  51.6321 282.5143 0011060  31.3623 328.8023 15.48192940549749
CZ-4B R/B               
1 25732U 99025C   26026.12433707  .00000117  00000+0  77091-4 0  9993
2 25732  98.6707  71.3982 0038169 107.0187 312.6560 14.18256207382135
OKEAN-O                 
1 25860U 99039A   26026.13469301  .00001375  00000+0  18748-3 0  9990
2 25860  97.9532  86.4391 0001895  98.2018 261.9409 14.80259104428098
SL-16 R/B               
1 25861U 99039B   26026.15484752  .00001113  00000+0  14807-3 0  9992
2 25861  98.0057  85.2951 0015645  39.7895 320.4461 14.81666161430563
DELTA 2 R/B             
1 25876U 99041E   26025.68220108  .00004054  00000+0  68906-3 0  9997
2 25876  51.7626 113.0158 0502885 221.3519 134.8303 14.11631341356952
HELIOS 1B               
1 25977U 99064A   26026.27087045  .00003409  00000+0  38232-3 0  9993
2 25977  98.1733 287.2598 0001357 131.0765 229.0568 14.87507308678953
TERRA                   
1 25994U 99068A   26026.32265140  .00000786  00000+0  16947-3 0  9990
2 25994  97.9682  81.3569 0001560 349.5418  78.1898 14.60964182388898
SL-16 R/B               
1 26070U 00006B   26025.84435938  .00000293  00000+0  17328-3 0  9997
2 26070  71.0008 187.9227 0018624 249.2027 110.7101 14.15814541342493
TITAN 4B R/B            
1 26474U 00047B   26026.28610479  .00006260  00000+0  39496-3 0  9994
2 26474  67.9890 159.7122 0036825  88.4205 272.1161 15.09183825386517
ENVISAT                 
1 27386U 02009A   26025.84060174  .00000268  00000+0  10072-3 0  9990
2 27386  98.3659 340.4777 0001225  91.7689 280.2753 14.39019282253017
